{
  "norad_id": 52607,
  "name": "STARLINK-3947",
  "history": [
    {
      "epoch": "2026-03-28T16:40:30.270720Z",
      "apogee_km": 540.5279010144732,
      "perigee_km": 538.9147948049085,
      "latitude_deg": 5.323988235148805e-06,
      "longitude_deg": 122.57571910810283,
      "height_km": 540.531306226472,
      "semi_major_axis_km": 6917.858347909691,
      "eccentricity": 0.00011659,
      "inclination_deg": 53.2157,
      "raan_deg": 198.8134,
      "arg_perigee_deg": 83.8901,
      "mean_anomaly_deg": 276.2224,
      "mean_motion_rev_day": 15.08847211
    },
    {
      "epoch": "2026-03-29T00:37:26.649696Z",
      "apogee_km": 540.7107084231029,
      "perigee_km": 538.7889194661875,
      "latitude_deg": -6.585530250828821e-05,
      "longitude_deg": 1.5260000872309276,
      "height_km": 540.7207426870339,
      "semi_major_axis_km": 6917.886813944645,
      "eccentricity": 0.0001389,
      "inclination_deg": 53.2166,
      "raan_deg": 197.3251,
      "arg_perigee_deg": 94.4966,
      "mean_anomaly_deg": 265.6184,
      "mean_motion_rev_day": 15.08837898
    },
    {
      "epoch": "2026-03-30T00:28:13.856448Z",
      "apogee_km": 540.5370280120314,
      "perigee_km": 538.9641770867165,
      "latitude_deg": -2.0524666533954614e-06,
      "longitude_deg": -1.607685506214674,
      "height_km": 540.5906565280553,
      "semi_major_axis_km": 6917.887602549374,
      "eccentricity": 0.00011368,
      "inclination_deg": 53.215,
      "raan_deg": 192.8674,
      "arg_perigee_deg": 85.938,
      "mean_anomaly_deg": 274.1742,
      "mean_motion_rev_day": 15.0883764
    },
    {
      "epoch": "2026-03-30T13:11:19.004928Z",
      "apogee_km": 540.5293704067244,
      "perigee_km": 538.9628849512919,
      "latitude_deg": -6.897481648013535e-05,
      "longitude_deg": 164.71959966847228,
      "height_km": 540.5465898116947,
      "semi_major_axis_km": 6917.883127679008,
      "eccentricity": 0.00011322,
      "inclination_deg": 53.2154,
      "raan_deg": 190.4885,
      "arg_perigee_deg": 83.0064,
      "mean_anomaly_deg": 277.1056,
      "mean_motion_rev_day": 15.08839104
    },
    {
      "epoch": "2026-03-30T16:22:05.076480Z",
      "apogee_km": 540.5485966992992,
      "perigee_km": 538.926908499795,
      "latitude_deg": -2.61490601208988e-05,
      "longitude_deg": 116.30189090552227,
      "height_km": 540.5317563489202,
      "semi_major_axis_km": 6917.874752599547,
      "eccentricity": 0.00011721,
      "inclination_deg": 53.2148,
      "raan_deg": 189.8933,
      "arg_perigee_deg": 82.7945,
      "mean_anomaly_deg": 277.318,
      "mean_motion_rev_day": 15.08841844
    },
    {
      "epoch": "2026-03-31T13:02:05.682048Z",
      "apogee_km": 540.6112496146015,
      "perigee_km": 538.8797036307033,
      "latitude_deg": -2.386734691762168e-05,
      "longitude_deg": 161.58491378265887,
      "height_km": 540.5958022631576,
      "semi_major_axis_km": 6917.882476622653,
      "eccentricity": 0.00012515,
      "inclination_deg": 53.2144,
      "raan_deg": 186.0276,
      "arg_perigee_deg": 87.0062,
      "mean_anomaly_deg": 273.1073,
      "mean_motion_rev_day": 15.08839317
    },
    {
      "epoch": "2026-04-01T09:42:07.289856Z",
      "apogee_km": 540.6486966638677,
      "perigee_km": 538.8956984732031,
      "latitude_deg": 1.3844583703730888e-05,
      "longitude_deg": -153.1366244177742,
      "height_km": 540.5997479163847,
      "semi_major_axis_km": 6917.909197568535,
      "eccentricity": 0.0001267,
      "inclination_deg": 53.215,
      "raan_deg": 182.1615,
      "arg_perigee_deg": 85.5485,
      "mean_anomaly_deg": 274.5652,
      "mean_motion_rev_day": 15.08830575
    },
    {
      "epoch": "2026-04-02T14:19:02.991360Z",
      "apogee_km": 540.5588072212731,
      "perigee_km": 538.8960293296968,
      "latitude_deg": 1.9913920294517293e-05,
      "longitude_deg": 131.1074959428058,
      "height_km": 540.5201544092458,
      "semi_major_axis_km": 6917.864418275485,
      "eccentricity": 0.00012018,
      "inclination_deg": 53.2169,
      "raan_deg": 176.8129,
      "arg_perigee_deg": 82.8731,
      "mean_anomaly_deg": 277.2398,
      "mean_motion_rev_day": 15.08845225
    },
    {
      "epoch": "2026-04-02T22:15:58.923648Z",
      "apogee_km": 540.6922633407212,
      "perigee_km": 538.7989772252031,
      "latitude_deg": 1.9907809100856e-05,
      "longitude_deg": 10.056596474830796,
      "height_km": 540.4852729685081,
      "semi_major_axis_km": 6917.882620282962,
      "eccentricity": 0.00013684,
      "inclination_deg": 53.2175,
      "raan_deg": 175.3215,
      "arg_perigee_deg": 80.51,
      "mean_anomaly_deg": 279.6047,
      "mean_motion_rev_day": 15.0883927
    },
    {
      "epoch": "2026-04-03T14:09:50.069376Z",
      "apogee_km": 540.7593232508807,
      "perigee_km": 538.707482889331,
      "latitude_deg": 8.088240210987333e-07,
      "longitude_deg": 127.96858629236053,
      "height_km": 540.5983692807386,
      "semi_major_axis_km": 6917.870403070106,
      "eccentricity": 0.0001483,
      "inclination_deg": 53.2175,
      "raan_deg": 172.3495,
      "arg_perigee_deg": 88.2918,
      "mean_anomaly_deg": 271.8244,
      "mean_motion_rev_day": 15.08843267
    },
    {
      "epoch": "2026-04-04T06:03:42.319296Z",
      "apogee_km": 540.7967982748805,
      "perigee_km": 538.7111924975916,
      "latitude_deg": 2.3444541180964596e-05,
      "longitude_deg": -114.126506533143,
      "height_km": 540.8155134625985,
      "semi_major_axis_km": 6917.890995386236,
      "eccentricity": 0.00015074,
      "inclination_deg": 53.2176,
      "raan_deg": 169.375,
      "arg_perigee_deg": 99.1584,
      "mean_anomaly_deg": 260.9579,
      "mean_motion_rev_day": 15.0883653
    },
    {
      "epoch": "2026-04-05T12:16:02.685216Z",
      "apogee_km": 540.6817484987887,
      "perigee_km": 538.8521012687361,
      "latitude_deg": 3.370614606024825e-05,
      "longitude_deg": 145.89853920993613,
      "height_km": 540.6365515492503,
      "semi_major_axis_km": 6917.903924883763,
      "eccentricity": 0.00013224,
      "inclination_deg": 53.2163,
      "raan_deg": 163.7254,
      "arg_perigee_deg": 88.3709,
      "mean_anomaly_deg": 271.7435,
      "mean_motion_rev_day": 15.088323
    }
  ]
}